EUTELSAT 10B            
1 54259U 22157A   22347.63101023 -.00000173  00000+0  33303-1 0  9990
2 54259  18.0468 294.5941 7870251 184.1688 159.0292  1.11012561   257
FALCON 9 R/B            
1 54260U 22157B   22347.47946354  .00003124  00000+0  14830-2 0  9991
2 54260  22.4719 294.2886 8185158 184.9727 151.8453  1.25051460   255
EOS-6 (OCEANSAT-3)      
1 54361U 22158A   22353.80272744  .00000385  00000+0  12257-3 0  9991
2 54361  98.3540  88.2356 0008581 156.1635   1.5366 14.45012603  3393
2022-158B               
1 54362U 22158B   22354.02563684  .00004858  00000+0  24828-3 0  9999
2 54362  97.4615  89.0082 0024473 163.7379  11.2723 15.16875349  3588
THYBOLT-1               
1 54363U 22158C   22354.05180346  .00014551  00000+0  68369-3 0  9992
2 54363  97.4483  88.9376 0011798 173.5939   1.8275 15.19646709  3590
THYBOLT-2               
1 54364U 22158D   22353.71919772  .00014723  00000+0  69192-3 0  9994
2 54364  97.4474  88.6108 0011415 174.7570 342.7891 15.19642215  3545
INS-2B                  
1 54365U 22158E   22354.04759992  .00013844  00000+0  64653-3 0  9998
2 54365  97.4435  88.9203 0011656 183.5083 349.4479 15.19871903  3595
ANAND                   
1 54366U 22158F   22354.04503612  .00011463  00000+0  53417-3 0  9996
2 54366  97.4418  88.9163 0010711 182.3699 352.0892 15.20002663  3593
ASTROCAST-0304          
1 54367U 22158G   22354.03905774  .00006426  00000+0  29904-3 0  9998
2 54367  97.4464  88.9462 0008877 179.5344 353.3195 15.20252518  3587
ASTROCAST-0303          
1 54368U 22158H   22353.83586992  .00005767  00000+0  26811-3 0  9994
2 54368  97.4484  88.7563 0008732 188.7168 320.0855 15.20328509  3562
ASTROCAST-0302          
1 54369U 22158J   22354.03474292  .00014934  00000+0  68198-3 0  9997
2 54369  97.4483  88.9576 0008081 195.5732 336.1154 15.20657991  3591
ASTROCAST-0301          
1 54370U 22158K   22353.83160436  .00010446  00000+0  47686-3 0  9991
2 54370  97.4487  88.7654 0008347 202.6155 311.3781 15.20757886  3568
DRAGON CRS-26           
1 54371U 22159A   22353.56332079  .00011291  00000+0  20512-3 0  9995
2 54371  51.6432 138.2624 0003495 172.6282 277.4278 15.50056320373937
2022-160A               
1 54372U 22160A   22353.74656378  .00014279  00000+0  59910-3 0  9992
2 54372  34.9970  88.0520 0004805  61.9047  71.4781 15.22652645  3393
2022-160B               
1 54373U 22160B   22353.73605251  .00025336  00000+0  10172-2 0  9998
2 54373  34.9976  87.9672 0007696  93.0166  39.3279 15.24029941  3399
2022-160C               
1 54374U 22160C   22353.75047994  .00010599  00000+0  44770-3 0  9992
2 54374  34.9981  88.0778 0005204  62.2917  73.5037 15.22470695  3352
2022-160D               
1 54375U 22160D   22353.73120846  .00028027  00000+0  11122-2 0  9998
2 54375  34.9981  87.9307 0007859 101.0389  30.1214 15.24401286  3394
2022-160E               
1 54376U 22160E   22353.75101407  .00013897  00000+0  58733-3 0  9992
2 54376  34.9997  88.0825 0007180  91.1055  44.8206 15.22400854  3396
COSMOS 2564 [GLONASS-M] 
1 54377U 22161A   22353.55648269  .00000068  00000+0  00000+0 0  9990
2 54377  64.7499 235.1839 0043129 141.1296  36.6185  2.13104957   440
FREGAT R/B              
1 54378U 22161B   22332.88538517  .00000006  00000+0  00000+0 0  9990
2 54378  64.7543 235.8312 0069964  61.3586  78.3433  2.10629160    00
SHENZHOU-15             
1 54379U 22162A   22352.97720563  .00020807  00000+0  25713-3 0  9991
2 54379  41.4745 173.9201 0003843 166.0922 329.9912 15.59625205 93650
COSMOS 2565             
1 54381U 22163A   22353.85935130  .00000453  00000+0  38074-3 0  9990
2 54381  67.1548 326.9348 0007076 264.4172 113.0222 13.96675835  2674
SL-4 R/B                
1 54382U 22163B   22353.95326505  .00130331  76895-5  65181-3 0  9991
2 54382  67.1330 318.5162 0449319  74.5993 290.4309 15.06623010  2875
2022-163C               
1 54383U 22163C   22353.85024958  .00000011  00000+0  61433-4 0  9995
2 54383  67.1420 326.9097 0011317 318.7283  41.2946 13.97183299  2365
1998-067UL              
1 54534U 98067UL  22353.66242911  .00057867  00000+0  94860-3 0  9999
2 54534  51.6398 137.6157 0005882 189.7306 170.3571 15.51875586  2740
1998-067UM              
1 54535U 98067UM  22353.81722439  .00055884  00000+0  90983-3 0  9994
2 54535  51.6429 136.8315 0006143 191.0296 319.4187 15.52080451  2769
1998-067UN              
1 54536U 98067UN  22353.81782532  .00043379  00000+0  71705-3 0  9992
2 54536  51.6437 136.8443 0006336 189.7299 316.4261 15.51765609  2722
1998-067UP              
1 54537U 98067UP  22353.81046613  .00048460  00000+0  79486-3 0  9996
2 54537  51.6423 136.8696 0006562 191.1603 279.2872 15.51931569  2763
2022-164A               
1 54588U 22164A   22353.84066884  .00001185  00000+0  35530-3 0  9997
2 54588  98.3565  21.0071 0008781 237.4103 122.6215 14.44540969  1852
KZ-11 R/B               
1 54589U 22164B   22353.90477281  .00017939  22009-5  20270-3 0  9990
2 54589  98.3695  22.4377 0379896  62.2688 301.6530 15.07861872  1949
2022-165A               
1 54640U 22165A   22352.29907917  .00001412  00000+0  31881-3 0  9994
2 54640  98.1174 290.5979 0000848  93.3663  60.7615 14.57762242  1390
2022-165B               
1 54641U 22165B   22353.87844569  .00000750  00000+0  14675-3 0  9999
2 54641  98.0287 292.0033 0033425 267.1240  92.6147 14.65359366  1620
ONEWEB-0527             
1 54642U 22166A   22353.78138183  .00002860  00000+0  28522-3 0  9999
2 54642  86.5167 153.5567 0007814 193.4171 166.6850 14.91178928  1939
ONEWEB-0528             
1 54643U 22166B   22353.78150547  .00002880  00000+0  28732-3 0  9993
2 54643  86.5180 153.5586 0007766 194.1365 165.9646 14.91163350  1933
ONEWEB-0539             
1 54644U 22166C   22353.77952514  .00002926  00000+0  28994-3 0  9998
2 54644  86.5162 153.5537 0009132 192.3143 167.7863 14.91438190  1931
ONEWEB-0540             
1 54645U 22166D   22353.78230672  .00002893  00000+0  28951-3 0  9990
2 54645  86.5147 153.5540 0007541 197.3519 162.7451 14.91051331  1917
ONEWEB-0542             
1 54646U 22166E   22353.77285653  .00001498  00000+0  14347-3 0  9993
2 54646  86.5168 153.5518 0012423 203.3055 156.7611 14.92365774  1915
ONEWEB-0545             
1 54647U 22166F   22353.78189876  .00002867  00000+0  28644-3 0  9991
2 54647  86.5149 153.5544 0007670 195.7542 164.3448 14.91108663  1911
ONEWEB-0580             
1 54648U 22166G   22353.84181598  .00003018  00000+0  29411-3 0  9994
2 54648  86.5156 153.5230 0011965 199.6462 160.4307 14.92091006  2362
ONEWEB-0582             
1 54649U 22166H   22353.77829077  .00002852  00000+0  28134-3 0  9994
2 54649  86.5163 153.5520 0009915 193.0225 167.0748 14.91606282  1919
ONEWEB-0583             
1 54650U 22166J   22353.77719025  .00002902  00000+0  28511-3 0  9992
2 54650  86.5167 153.5539 0010579 193.0456 167.0499 14.91760636  1916
ONEWEB-0584             
1 54651U 22166K   22353.77770846  .00002907  00000+0  28613-3 0  9999
2 54651  86.5161 153.5519 0010232 193.4469 166.6488 14.91692606  1917
ONEWEB-0585             
1 54652U 22166L   22353.77972511  .00003031  00000+0  30065-3 0  9996
2 54652  86.5170 153.5561 0009002 192.2708 167.8302 14.91410996  1919
ONEWEB-0586             
1 54653U 22166M   22353.78343065  .00002891  00000+0  29049-3 0  9997
2 54653  86.5186 153.5608 0007092 201.6474 158.4455 14.90896870  1914
ONEWEB-0587             
1 54654U 22166N   22353.77867062  .00002798  00000+0  27629-3 0  9993
2 54654  86.5174 153.5580 0009697 192.4458 167.6532 14.91553786  1918
ONEWEB-0589             
1 54655U 22166P   22353.77324625  .00002851  00000+0  27611-3 0  9998
2 54655  86.5160 153.5523 0012267 203.1152 156.9526 14.92306182  1910
ONEWEB-0590             
1 54656U 22166Q   22353.77381498  .00001737  00000+0  16747-3 0  9990
2 54656  86.5154 153.5520 0012039 201.7809 158.2909 14.92227862  1918
ONEWEB-0591             
1 54657U 22166R   22353.77404289  .00006833  00000+0  66756-3 0  9992
2 54657  86.5185 153.5530 0011952 201.5974 158.4751 14.92190498  1919
ONEWEB-0592             
1 54658U 22166S   22353.78317628  .00002836  00000+0  28457-3 0  9999
2 54658  86.5148 153.5551 0007172 200.5922 159.5017 14.90934104  1918
ONEWEB-0593             
1 54659U 22166T   22353.77808619  .00002901  00000+0  28599-3 0  9994
2 54659  86.5174 153.5577 0010008 193.2436 166.8531 14.91637255  1916
ONEWEB-0594             
1 54660U 22166U   22353.77548719  .00002895  00000+0  28268-3 0  9993
2 54660  86.5168 153.5533 0011513 197.5919 162.4911 14.91994830  1917
ONEWEB-0595             
1 54661U 22166V   22353.77792204  .00002963  00000+0  29196-3 0  9991
2 54661  86.5176 153.5577 0010111 193.3372 166.7590 14.91658936  1919
ONEWEB-0596             
1 54662U 22166W   22353.77902030  .00002903  00000+0  28713-3 0  9990
2 54662  86.5161 153.5525 0009479 192.1205 167.9796 14.91506194  1913
ONEWEB-0597             
1 54663U 22166X   22353.77441662  .00005831  00000+0  57004-3 0  9998
2 54663  86.5152 153.5520 0011924 200.0334 160.0427 14.92139983  1913
ONEWEB-0600             
1 54664U 22166Y   22353.77334586  .00003071  00000+0  29775-3 0  9993
2 54664  86.5157 153.5522 0012191 202.9244 157.1442 14.92294083  1916
ONEWEB-0601             
1 54665U 22166Z   22353.77454815  .00002823  00000+0  27463-3 0  9998
2 54665  86.5182 153.5532 0011903 199.7463 160.3305 14.92128024  1917
ONEWEB-0602             
1 54666U 22166AA  22353.77489848  .00003170  00000+0  30916-3 0  9996
2 54666  86.5177 153.5529 0011773 198.7954 161.2841 14.92077832  1912
ONEWEB-0603             
1 54667U 22166AB  22353.78373588  .00003305  00000+0  33270-3 0  9997
2 54667  86.5155 153.5568 0007020 203.1562 156.9350 14.90861821  1911
ONEWEB-0604             
1 54668U 22166AC  22353.78284351  .00002890  00000+0  28971-3 0  9997
2 54668  86.5191 153.5617 0007300 199.2765 160.8188 14.90979787  1912
